NORAD_CAT_ID,OBJECT_NAME,OBJECT_TYPE,EPOCH,MEAN_MOTION,ECCENTRICITY,INCLINATION,RA_OF_ASC_NODE,ARG_OF_PERICENTER,MEAN_ANOMALY,BSTAR,MEAN_MOTION_DOT,MEAN_MOTION_DDOT,TLE_LINE0,TLE_LINE1,TLE_LINE2,SEMIMAJOR_AXIS,PERIOD,APOGEE,PERIGEE,DECAYED
52494.0,STARLINK-3857,PAYLOAD,2022-09-27 07:41:49,15.08834137,0.0002139,53.219,302.6509,39.0413,321.0733,4.7203e-05,4.63e-06,0.0,0 STARLINK-3857,1 52494U 22049AV  22270.32071512  .00000463  00000-0  47203-4 0  9998,2 52494  53.2190 302.6509 0002139  39.0413 321.0733 15.08834137 22436,6917.898,95.438,541.243,538.284,0.0
52494.0,STARLINK-3857,PAYLOAD,2022-09-27 18:49:32,15.08836553,0.0002148,53.2195,300.5712,41.4475,318.668,-3.8027e-06,-3.49e-06,0.0,0 STARLINK-3857,1 52494U 22049AV  22270.78440168 -.00000349  00000-0 -38027-5 0  9995,2 52494  53.2195 300.5712 0002148  41.4475 318.6680 15.08836553 22346,6917.891,95.438,541.242,538.27,0.0
52494.0,STARLINK-3857,PAYLOAD,2022-09-28 12:18:46,15.08845499,0.0002131999999999,53.2188,297.2978,36.2568,323.8568,0.00017115,2.437e-05,0.0,0 STARLINK-3857,1 52494U 22049AV  22271.51303307  .00002437  00000-0  17115-3 0  9991,2 52494  53.2188 297.2978 0002132  36.2568 323.8568 15.08845499 22456,6917.864000000001,95.437,541.203,538.254,0.0
52494.0,STARLINK-3857,PAYLOAD,2022-09-29 02:37:15,15.08835836,0.0002124,53.2185,294.6211,36.9362,323.1776,0.00011598,1.558e-05,0.0,0 STARLINK-3857,1 52494U 22049AV  22272.10920410  .00001558  00000-0  11598-3 0  9999,2 52494  53.2185 294.6211 0002124  36.9362 323.1776 15.08835836 22700,6917.893,95.438,541.227,538.289,0.0
52494.0,STARLINK-3857,PAYLOAD,2022-09-29 08:58:47,15.08837551,0.0001996,53.2183,293.432,37.7348,322.3783,0.00012184,1.651e-05,0.0,0 STARLINK-3857,1 52494U 22049AV  22272.37416362  .00001651  00000-0  12184-3 0  9990,2 52494  53.2183 293.4320 0001996  37.7348 322.3783 15.08837551 22586,6917.888000000001,95.438,541.134,538.372,0.0
52494.0,STARLINK-3857,PAYLOAD,2022-09-29 18:31:07,15.08831302,0.0001938,53.2185,291.65,41.7242,318.3898,2.122e-05,5e-07,0.0,0 STARLINK-3857,1 52494U 22049AV  22272.77161169  .00000050  00000-0  21220-4 0  9990,2 52494  53.2185 291.6500 0001938  41.7242 318.3898 15.08831302 22649,6917.906999999997,95.438,541.113,538.431,0.0
52494.0,STARLINK-3857,PAYLOAD,2022-09-30 08:49:34,15.0884574,0.0002258,53.2187,288.9716,39.3295,320.786,3.4793000000000004e-05,2.66e-06,0.0,0 STARLINK-3857,1 52494U 22049AV  22273.36776444  .00000266  00000-0  34793-4 0  9992,2 52494  53.2187 288.9716 0002258  39.3295 320.7860 15.08845740 22890,6917.863,95.437,541.29,538.1659999999998,0.0
52494.0,STARLINK-3857,PAYLOAD,2022-09-30 18:21:53,15.08853175,0.0002266,53.2188,287.1877,40.1435,319.9725,9.3664e-05,1.203e-05,0.0,0 STARLINK-3857,1 52494U 22049AV  22273.76519734  .00001203  00000-0  93664-4 0  9997,2 52494  53.2188 287.1877 0002266  40.1435 319.9725 15.08853175 22795,6917.84,95.437,541.273,538.138,0.0
52494.0,STARLINK-3857,PAYLOAD,2022-10-01 00:43:25,15.08856501,0.0002531,53.2186,285.9977,59.0744,301.0496,0.00012776,1.746e-05,0.0,0 STARLINK-3857,1 52494U 22049AV  22274.03015529  .00001746  00000-0  12776-3 0  9997,2 52494  53.2186 285.9977 0002531  59.0744 301.0496 15.08856501 22992,6917.83,95.437,541.446,537.944,0.0
52494.0,STARLINK-3857,PAYLOAD,2022-10-01 10:15:44,15.08847236,0.0002271,53.2186,284.2157,35.9701,324.1443,0.00017585,2.512e-05,0.0,0 STARLINK-3857,1 52494U 22049AV  22274.42759977  .00002512  00000-0  17585-3 0  9997,2 52494  53.2186 284.2157 0002271  35.9701 324.1443 15.08847236 22893,6917.858,95.437,541.294,538.1519999999998,0.0
52494.0,STARLINK-3857,PAYLOAD,2022-10-02 06:55:45,15.08843487,0.0002261,53.218,280.3476,40.4227,319.6933,5.7683e-05,6.3e-06,0.0,0 STARLINK-3857,1 52494U 22049AV  22275.28871948  .00000630  00000-0  57683-4 0  9998,2 52494  53.2180 280.3476 0002261  40.4227 319.6933 15.08843487 23024,6917.87,95.437,541.299,538.1709999999998,0.0
52494.0,STARLINK-3857,PAYLOAD,2022-10-02 18:03:27,15.0883419,0.0002282,53.2174,278.2661,40.0131,320.1029,-9.7689e-05,-1.843e-05,0.0,0 STARLINK-3857,1 52494U 22049AV  22275.75240470 -.00001843  00000-0 -97689-4 0  9999,2 52494  53.2174 278.2661 0002282  40.0131 320.1029 15.08834190 23251,6917.898,95.438,541.342,538.184,0.0
52494.0,STARLINK-3857,PAYLOAD,2022-10-03 05:11:09,15.08845266,0.0002326,53.2179,276.1848,41.1466,318.9701,-2.4983e-05,-6.86e-06,0.0,0 STARLINK-3857,1 52494U 22049AV  22276.21608176 -.00000686  00000-0 -24983-4 0  9993,2 52494  53.2179 276.1848 0002326  41.1466 318.9701 15.08845266 23328,6917.864000000001,95.437,541.3380000000002,538.12,0.0
52494.0,STARLINK-3857,PAYLOAD,2022-10-03 09:57:18,15.08848144,0.0002316999999999,53.2179,275.2926,35.4704,324.6442,-1.6822e-05,-5.56e-06,0.0,0 STARLINK-3857,1 52494U 22049AV  22276.41479877 -.00000556  00000-0 -16822-4 0  9998,2 52494  53.2179 275.2926 0002317  35.4704 324.6442 15.08848144 23195,6917.855,95.437,541.323,538.118,0.0
52494.0,STARLINK-3857,PAYLOAD,2022-10-03 22:40:22,15.08849163,0.0002249,53.2186,272.9143,39.0191,321.0963,0.00019299,2.785e-05,0.0,0 STARLINK-3857,1 52494U 22049AV  22276.94470990  .00002785  00000-0  19299-3 0  9997,2 52494  53.2186 272.9143 0002249  39.0191 321.0963 15.08849163 23430,6917.852,95.437,541.273,538.1619999999998,0.0
52494.0,STARLINK-3857,PAYLOAD,2022-10-04 06:37:18,15.08848304,0.0002273,53.2191,271.4279,39.1461,320.9695,0.00018005,2.579e-05,0.0,0 STARLINK-3857,1 52494U 22049AV  22277.27591191  .00002579  00000-0  18005-3 0  9996,2 52494  53.2191 271.4279 0002273  39.1461 320.9695 15.08848304 23322,6917.855,95.437,541.2919999999998,538.148,0.0
52494.0,STARLINK-3857,PAYLOAD,2022-10-04 16:09:38,15.08842244,0.0002335999999999,53.2182,269.644,42.1894,317.9277,8.787700000000001e-05,1.111e-05,0.0,0 STARLINK-3857,1 52494U 22049AV  22277.67335776  .00001111  00000-0  87877-4 0  9990,2 52494  53.2182 269.6440 0002336  42.1894 317.9277 15.08842244 23548,6917.874,95.437,541.355,538.123,0.0
52494.0,STARLINK-3857,PAYLOAD,2022-10-05 06:28:06,15.08842589,0.0002237,53.2181,266.9679,37.6406,322.4742,8.1729e-05,1.013e-05,0.0,0 STARLINK-3857,1 52494U 22049AV  22278.26951666  .00001013  00000-0  81729-4 0  9999,2 52494  53.2181 266.9679 0002237  37.6406 322.4742 15.08842589 23471,6917.871999999999,95.437,541.285,538.19,0.0
52494.0,STARLINK-3857,PAYLOAD,2022-10-06 03:08:07,15.08836696,0.0002325,53.2174,263.1014,35.3705,324.7441,-5.1101e-05,-1.101e-05,0.0,0 STARLINK-3857,1 52494U 22049AV  22279.13063887 -.00001101  00000-0 -51101-4 0  9996,2 52494  53.2174 263.1014 0002325  35.3705 324.7441 15.08836696 23765,6917.89,95.438,541.364,538.1469999999998,0.0
52494.0,STARLINK-3857,PAYLOAD,2022-10-06 06:18:53,15.08835827,0.0002052,53.2173,262.5075,37.079,323.0343,-6.3754e-05,-1.303e-05,0.0,0 STARLINK-3857,1 52494U 22049AV  22279.26311885 -.00001303  00000-0 -63754-4 0  9995,2 52494  53.2173 262.5075 0002052  37.0790 323.0343 15.08835827 23627,6917.893,95.438,541.178,538.339,0.0
52494.0,STARLINK-3857,PAYLOAD,2022-10-06 15:51:12,15.08843929,0.0002206,53.2178,260.7223,36.7006,323.4137,0.00011581,1.556e-05,0.0,0 STARLINK-3857,1 52494U 22049AV  22279.66055592  .00001556  00000-0  11581-3 0  9997,2 52494  53.2178 260.7223 0002206  36.7006 323.4137 15.08843929 23687,6917.868,95.437,541.259,538.207,0.0
52494.0,STARLINK-3857,PAYLOAD,2022-10-07 07:45:03,15.08850217,0.000215,53.2177,257.7481,38.9552,321.1595,0.00029439,4.401e-05,0.0,0 STARLINK-3857,1 52494U 22049AV  22280.32295358  .00004401  00000-0  29439-3 0  9991,2 52494  53.2177 257.7481 0002150  38.9552 321.1595 15.08850217 23788,6917.849,95.437,541.201,538.227,0.0
52494.0,STARLINK-3857,PAYLOAD,2022-10-07 17:17:22,15.08842819,0.0002026999999999,53.2175,255.9641,33.8533,326.2588,0.00011515,1.545e-05,0.0,0 STARLINK-3857,1 52494U 22049AV  22280.72039539  .00001545  00000-0  11515-3 0  9994,2 52494  53.2175 255.9641 0002027  33.8533 326.2588 15.08842819 23844,6917.871999999999,95.437,541.139,538.335,0.0
52494.0,STARLINK-3857,PAYLOAD,2022-10-08 07:35:51,15.08828903,0.0002085999999999,53.2182,253.2871,36.7413,323.3722,-5.9714e-05,-1.238e-05,0.0,0 STARLINK-3857,1 52494U 22049AV  22281.31656370 -.00001238  00000-0 -59714-4 0  9993,2 52494  53.2182 253.2871 0002086  36.7413 323.3722 15.08828903 24096,6917.9140000000025,95.438,541.222,538.336,0.0
52494.0,STARLINK-3857,PAYLOAD,2022-10-08 18:43:32,15.08835127,0.000202,53.2172,251.2073,41.1175,318.9969,1.9816e-05,2.7e-07,0.0,0 STARLINK-3857,1 52494U 22049AV  22281.78024241  .00000027  00000-0  19816-4 0  9992,2 52494  53.2172 251.2073 0002020  41.1175 318.9969 15.08835127 24000,6917.895,95.438,541.158,538.363,0.0
52494.0,STARLINK-3857,PAYLOAD,2022-10-09 04:15:51,15.08839125,0.0001898,53.2175,249.4222,42.6981,317.4158,0.00012783,1.747e-05,0.0,0 STARLINK-3857,1 52494U 22049AV  22282.17768240  .00001747  00000-0  12783-3 0  9995,2 52494  53.2175 249.4222 0001898  42.6981 317.4158 15.08839125 24221,6917.8830000000025,95.438,541.061,538.435,0.0
52494.0,STARLINK-3857,PAYLOAD,2022-10-09 07:26:37,15.08844335,0.0001879,53.2172,248.8278,42.9354,317.1785,0.00027816,4.142e-05,0.0,0 STARLINK-3857,1 52494U 22049AV  22282.31016129  .00004142  00000-0  27816-3 0  9998,2 52494  53.2172 248.8278 0001879  42.9354 317.1785 15.08844335 24084,6917.8669999999975,95.437,541.0319999999998,538.432,0.0
52494.0,STARLINK-3857,PAYLOAD,2022-10-09 20:09:42,15.08848407,0.0001940999999999,53.2177,246.4496,38.4853,321.6277,0.00040273,6.129e-05,0.0,0 STARLINK-3857,1 52494U 22049AV  22282.84008089  .00006129  00000-0  40273-3 0  9991,2 52494  53.2177 246.4496 0001941  38.4853 321.6277 15.08848407 24168,6917.855,95.437,541.062,538.377,0.0
52494.0,STARLINK-3857,PAYLOAD,2022-10-10 04:06:38,15.08859136,0.0001779,53.2188,244.9636,35.9625,324.1487,0.00074139,0.00011537,0.0,0 STARLINK-3857,1 52494U 22049AV  22283.17127789  .00011537  00000-0  74139-3 0  9994,2 52494  53.2188 244.9636 0001779  35.9625 324.1487 15.08859136 24372,6917.821999999999,95.436,540.918,538.456,0.0
